{"type": "FeatureCollection", "features": [ {"type": "Feature", "properties": {"norad_id": 37216, "name": "COSMO-SKYMED 4", "group": "resource", "lat": -13.972554276264114, "lon": 173.1970538459999, "alt_km": 627.261486543799, "timestamp": "2025-12-15T22:44:28.580216+00:00", "meta": {"OBJECT_NAME": "COSMO-SKYMED 4", "OBJECT_ID": "2010-060A", "EPOCH": "2025-12-15T08:13:20.843904", "MEAN_MOTION": 14.82150104, "ECCENTRICITY": 0.00014047, "INCLINATION": 97.8807, "RA_OF_ASC_NODE": 170.6264, "ARG_OF_PERICENTER": 82.1807, "MEAN_ANOMALY": 277.9566, "EPHEMERIS_TYPE": 0, "CLASSIFICATION_TYPE": "U", "NORAD_CAT_ID": 37216, "ELEMENT_SET_NO": 999, "REV_AT_EPOCH": 81733, "BSTAR": 0.00014766173, "MEAN_MOTION_DOT": 1.123e-05, "MEAN_MOTION_DDOT": 0}, "tle": {"line1": "1 37216U 10060A   25349.34260236  .00001123  00000+0  14766-3 0  9998", "line2": "2 37216  97.8807 170.6264 0001404  82.1807 277.9566 14.82150104817331"}}, "geometry": {"type": "Point", "coordinates": [173.1970538459999, -13.972554276264114]}}, {"type": "Feature", "properties": {"norad_id": 37387, "name": "RESOURCESAT-2", "group": "resource", "lat": -26.944037049748097, "lon": 57.99449101737835, "alt_km": 823.4352023911224, "timestamp": "2025-12-15T22:44:28.580226+00:00", "meta": {"OBJECT_NAME": "RESOURCESAT-2", "OBJECT_ID": "2011-015A", "EPOCH": "2025-12-15T07:39:59.553792", "MEAN_MOTION": 14.21598315, "ECCENTRICITY": 0.0006316, "INCLINATION": 98.7876, "RA_OF_ASC_NODE": 52.8597, "ARG_OF_PERICENTER": 35.8083, "MEAN_ANOMALY": 324.3517, "EPHEMERIS_TYPE": 0, "CLASSIFICATION_TYPE": "U", "NORAD_CAT_ID": 37387, "ELEMENT_SET_NO": 999, "REV_AT_EPOCH": 76005, "BSTAR": 9.0950456e-05, "MEAN_MOTION_DOT": 1.55e-06, "MEAN_MOTION_DDOT": 0}, "tle": {"line1": "1 37387U 11015A   25349.31943928  .00000155  00000+0  90950-4 0  9995", "line2": "2 37387  98.7876  52.8597 0006316  35.8083 324.3517 14.21598315760056"}}, "geometry": {"type": "Point", "coordinates": [57.99449101737835, -26.944037049748097]}}, {"type": "Feature", "properties": {"norad_id": 37781, "name": "HAIYANG-2A", "group": "resource", "lat": -65.96132574723238, "lon": 149.18540832400632, "alt_km": 976.4058338588347, "timestamp": "2025-12-15T22:44:28.580237+00:00", "meta": {"OBJECT_NAME": "HAIYANG-2A", "OBJECT_ID": "2011-043A", "EPOCH": "2025-12-15T07:36:41.281344", "MEAN_MOTION": 13.78836398, "ECCENTRICITY": 0.00016795, "INCLINATION": 99.3382, "RA_OF_ASC_NODE": 350.2123, "ARG_OF_PERICENTER": 79.5491, "MEAN_ANOMALY": 280.585, "EPHEMERIS_TYPE": 0, "CLASSIFICATION_TYPE": "U", "NORAD_CAT_ID": 37781, "ELEMENT_SET_NO": 999, "REV_AT_EPOCH": 72134, "BSTAR": 0.00035240702, "MEAN_MOTION_DOT": 3.15e-06, "MEAN_MOTION_DDOT": 0}, "tle": {"line1": "1 37781U 11043A   25349.31714446  .00000315  00000+0  35241-3 0  9994", "line2": "2 37781  99.3382 350.2123 0001679  79.5491 280.5850 13.78836398721347"}}, "geometry": {"type": "Point", "coordinates": [149.18540832400632, -65.96132574723238]}}, {"type": "Feature", "properties": {"norad_id": 37791, "name": "RASAT", "group": "resource", "lat": -48.334165368518434, "lon": 88.32511901779333, "alt_km": 678.3205362852595, "timestamp": "2025-12-15T22:44:28.580248+00:00", "meta": {"OBJECT_NAME": "RASAT", "OBJECT_ID": "2011-044D", "EPOCH": "2025-12-15T08:33:13.296096", "MEAN_MOTION": 14.67914839, "ECCENTRICITY": 0.00218158, "INCLINATION": 98.0646, "RA_OF_ASC_NODE": 78.575, "ARG_OF_PERICENTER": 57.182, "MEAN_ANOMALY": 12.1123, "EPHEMERIS_TYPE": 0, "CLASSIFICATION_TYPE": "U", "NORAD_CAT_ID": 37791, "ELEMENT_SET_NO": 999, "REV_AT_EPOCH": 76621, "BSTAR": 0.00014651643, "MEAN_MOTION_DOT": 7.92e-06, "MEAN_MOTION_DDOT": 0}, "tle": {"line1": "1 37791U 11044D   25349.35640389  .00000792  00000+0  14652-3 0  9996", "line2": "2 37791  98.0646  78.5750 0021815  57.1820  12.1123 14.67914839766218"}}, "geometry": {"type": "Point", "coordinates": [88.32511901779333, -48.334165368518434]}}, {"type": "Feature", "properties": {"norad_id": 37841, "name": "SRMSAT", "group": "resource", "lat": -9.826769571087576, "lon": -62.97620307656772, "alt_km": 859.4948907005501, "timestamp": "2025-12-15T22:44:28.580259+00:00", "meta": {"OBJECT_NAME": "SRMSAT", "OBJECT_ID": "2011-058D", "EPOCH": "2025-12-15T08:21:30.921120", "MEAN_MOTION": 14.11512323, "ECCENTRICITY": 0.00118219, "INCLINATION": 19.9716, "RA_OF_ASC_NODE": 92.1629, "ARG_OF_PERICENTER": 342.2389, "MEAN_ANOMALY": 56.0239, "EPHEMERIS_TYPE": 0, "CLASSIFICATION_TYPE": "U", "NORAD_CAT_ID": 37841, "ELEMENT_SET_NO": 999, "REV_AT_EPOCH": 73181, "BSTAR": 9.2524451e-05, "MEAN_MOTION_DOT": 4.35e-06, "MEAN_MOTION_DDOT": 0}, "tle": {"line1": "1 37841U 11058D   25349.34827455  .00000435  00000+0  92524-4 0  9996", "line2": "2 37841  19.9716  92.1629 0011821 342.2389  56.0239 14.11512323731819"}}, "geometry": {"type": "Point", "coordinates": [-62.97620307656772, -9.826769571087576]}}, {"type": "Feature", "properties": {"norad_id": 38012, "name": "PLEIADES 1A", "group": "resource", "lat": -1.4217023588409754, "lon": 62.87096524104099, "alt_km": 700.727781064862, "timestamp": "2025-12-15T22:44:28.580269+00:00", "meta": {"OBJECT_NAME": "PLEIADES 1A", "OBJECT_ID": "2011-076F", "EPOCH": "2025-12-15T08:16:05.109312", "MEAN_MOTION": 14.58565391, "ECCENTRICITY": 0.00012516, "INCLINATION": 98.1821, "RA_OF_ASC_NODE": 62.0727, "ARG_OF_PERICENTER": 74.3709, "MEAN_ANOMALY": 359.6895, "EPHEMERIS_TYPE": 0, "CLASSIFICATION_TYPE": "U", "NORAD_CAT_ID": 38012, "ELEMENT_SET_NO": 999, "REV_AT_EPOCH": 74519, "BSTAR": 0.00014491427, "MEAN_MOTION_DOT": 6.28e-06, "MEAN_MOTION_DDOT": 0}, "tle": {"line1": "1 38012U 11076F   25349.34450358  .00000628  00000+0  14491-3 0  9991", "line2": "2 38012  98.1821  62.0727 0001251  74.3709 359.6895 14.58565391745196"}}, "geometry": {"type": "Point", "coordinates": [62.87096524104099, -1.4217023588409754]}}, {"type": "Feature", "properties": {"norad_id": 38038, "name": "ZIYUAN 1-02C (ZY 1-02C)", "group": "resource", "lat": 29.047246462803287, "lon": 51.17571654926114, "alt_km": 764.5688354750655, "timestamp": "2025-12-15T22:44:28.580280+00:00", "meta": {"OBJECT_NAME": "ZIYUAN 1-02C (ZY 1-02C)", "OBJECT_ID": "2011-079A", "EPOCH": "2025-12-15T07:51:54.098208", "MEAN_MOTION": 14.38016199, "ECCENTRICITY": 0.00073047, "INCLINATION": 98.4332, "RA_OF_ASC_NODE": 55.2936, "ARG_OF_PERICENTER": 131.5538, "MEAN_ANOMALY": 291.0332, "EPHEMERIS_TYPE": 0, "CLASSIFICATION_TYPE": "U", "NORAD_CAT_ID": 38038, "ELEMENT_SET_NO": 999, "REV_AT_EPOCH": 73278, "BSTAR": 0.00022999507, "MEAN_MOTION_DOT": 6.53e-06, "MEAN_MOTION_DDOT": 0}, "tle": {"line1": "1 38038U 11079A   25349.32770947  .00000653  00000+0  23000-3 0  9993", "line2": "2 38038  98.4332  55.2936 0007304 131.5538 291.0332 14.38016199732782"}}, "geometry": {"type": "Point", "coordinates": [51.17571654926114, 29.047246462803287]}}, {"type": "Feature", "properties": {"norad_id": 38046, "name": "ZIYUAN 3-1 (ZY 3-1)", "group": "resource", "lat": -71.80703399588671, "lon": -146.09954341872887, "alt_km": 368.82009622380974, "timestamp": "2025-12-15T22:44:28.580291+00:00", "meta": {"OBJECT_NAME": "ZIYUAN 3-1 (ZY 3-1)", "OBJECT_ID": "2012-001A", "EPOCH": "2025-12-15T07:53:21.422688", "MEAN_MOTION": 15.68978569, "ECCENTRICITY": 0.00016088, "INCLINATION": 97.1755, "RA_OF_ASC_NODE": 55.8079, "ARG_OF_PERICENTER": 338.7655, "MEAN_ANOMALY": 21.354, "EPHEMERIS_TYPE": 0, "CLASSIFICATION_TYPE": "U", "NORAD_CAT_ID": 38046, "ELEMENT_SET_NO": 999, "REV_AT_EPOCH": 77537, "BSTAR": 0.00046371558, "MEAN_MOTION_DOT": 0.00053483, "MEAN_MOTION_DDOT": 0}, "tle": {"line1": "1 38046U 12001A   25349.32872017  .00053483  00000+0  46372-3 0  9995", "line2": "2 38046  97.1755  55.8079 0001608 338.7655  21.3540 15.68978569775371"}}, "geometry": {"type": "Point", "coordinates": [-146.09954341872887, -71.80703399588671]}}, {"type": "Feature", "properties": {"norad_id": 38338, "name": "ARIRANG-3 (KOMPSAT-3)", "group": "resource", "lat": -66.16470866698013, "lon": -36.06431941668955, "alt_km": 691.8862311413804, "timestamp": "2025-12-15T22:44:28.580302+00:00", "meta": {"OBJECT_NAME": "ARIRANG-3 (KOMPSAT-3)", "OBJECT_ID": "2012-025B", "EPOCH": "2025-12-15T08:15:49.864896", "MEAN_MOTION": 14.617163, "ECCENTRICITY": 0.00051864, "INCLINATION": 98.3325, "RA_OF_ASC_NODE": 303.9533, "ARG_OF_PERICENTER": 330.0921, "MEAN_ANOMALY": 29.9983, "EPHEMERIS_TYPE": 0, "CLASSIFICATION_TYPE": "U", "NORAD_CAT_ID": 38338, "ELEMENT_SET_NO": 999, "REV_AT_EPOCH": 72448, "BSTAR": 0.00013400845, "MEAN_MOTION_DOT": 6.19e-06, "MEAN_MOTION_DDOT": 0}, "tle": {"line1": "1 38338U 12025B   25349.34432714  .00000619  00000+0  13401-3 0  9993", "line2": "2 38338  98.3325 303.9533 0005186 330.0921  29.9983 14.61716300724485"}}, "geometry": {"type": "Point", "coordinates": [-36.06431941668955, -66.16470866698013]}}, {"type": "Feature", "properties": {"norad_id": 38709, "name": "EXACTVIEW-1 (ADS-1B)", "group": "resource", "lat": -45.25709719093496, "lon": -90.75915754195485, "alt_km": 819.1462989797783, "timestamp": "2025-12-15T22:44:28.580312+00:00", "meta": {"OBJECT_NAME": "EXACTVIEW-1 (ADS-1B)", "OBJECT_ID": "2012-039C", "EPOCH": "2025-12-15T06:30:58.909824", "MEAN_MOTION": 14.24909081, "ECCENTRICITY": 0.00105374, "INCLINATION": 98.9637, "RA_OF_ASC_NODE": 97.7147, "ARG_OF_PERICENTER": 346.8154, "MEAN_ANOMALY": 13.2747, "EPHEMERIS_TYPE": 0, "CLASSIFICATION_TYPE": "U", "NORAD_CAT_ID": 38709, "ELEMENT_SET_NO": 999, "REV_AT_EPOCH": 69651, "BSTAR": 8.3027803e-05, "MEAN_MOTION_DOT": 1.48e-06, "MEAN_MOTION_DDOT": 0}, "tle": {"line1": "1 38709U 12039C   25349.27151516  .00000148  00000+0  83028-4 0  9990", "line2": "2 38709  98.9637  97.7147 0010537 346.8154  13.2747 14.24909081696512"}}, "geometry": {"type": "Point", "coordinates": [-90.75915754195485, -45.25709719093496]}}]}